*******************************************************************************
JPL/HORIZONS               349 Dembowska (A892 XB)         2020-Jun-22 08:54:24
Rec #:     349 (+COV) Soln.date: 2020-May-20_01:04:06   # obs: 2708 (1892-2020)
 
IAU76/J2000 helio. ecliptic osc. elements (au, days, deg., period=Julian yrs):
 
  EPOCH=  2451712.5 ! 2000-Jun-17.00 (TDB)         Residual RMS= .3519
   EC= .08597952127254581  QR= 2.674969170465361   TP= 2452382.8512786776
   OM= 32.64822636428499   W=  344.9878471090071   IN= 8.244460803260155
   A= 2.926596539926096    MA= 228.0339450762756   ADIST= 3.178223909386831
   PER= 5.00671            N= .196861042           ANGMOM= .029319169
   DAN= 2.68222            DDN= 3.16805            L= 17.784329
   B= -2.1286391           MOID= 1.67865002        TP= 2002-Apr-18.3512786776
 
Asteroid physical parameters (km, seconds, rotational period in hours):
   GM= n.a.                RAD= 69.885             ROTPER= 4.701
   H= 5.9                  G= .370                 B-V= .945
                           ALBEDO= .384            STYP= R
 
ASTEROID comments: 
1: soln ref.= JPL#111, OCC=0
2: source=ORB
*******************************************************************************
 
 
*******************************************************************************
Ephemeris / WWW_USER Mon Jun 22 08:54:24 2020 Pasadena, USA      / Horizons
*******************************************************************************
Target body name: 349 Dembowska (A892 XB)         {source: JPL#111}
Center body name: Solar System Barycenter (0)     {source: DE431}
Center-site name: BODY CENTER
*******************************************************************************
Start time      : A.D. 1969-Jun-28 00:00:00.0000 TDB
Stop  time      : A.D. 2071-May-04 00:00:00.0000 TDB
Step-size       : 7200 minutes
*******************************************************************************
Center geodetic : 0.00000000,0.00000000,0.0000000 {E-lon(deg),Lat(deg),Alt(km)}
Center cylindric: 0.00000000,0.00000000,0.0000000 {E-lon(deg),Dxy(km),Dz(km)}
Center radii    : (undefined)                                                  
Small perturbers: Yes                             {source: SB431-N16}
Output units    : AU-D
Output type     : GEOMETRIC cartesian states
Output format   : 2 (position and velocity)
Reference frame : Ecliptic of J2000.0
*******************************************************************************
Initial IAU76/J2000 heliocentric ecliptic osculating elements (au, days, deg.):
  EPOCH=  2451712.5 ! 2000-Jun-17.00 (TDB)         Residual RMS= .3519         
   EC= .08597952127254581  QR= 2.674969170465361   TP= 2452382.8512786776      
   OM= 32.64822636428499   W=  344.9878471090071   IN= 8.244460803260155       
  Equivalent ICRF heliocentric equatorial cartesian coordinates (au, au/d):
   X=-1.614113753756606E+00  Y=-2.349577492280018E+00  Z=-1.233016871468357E+00
  VX= 8.329082421086410E-03 VY=-3.496565139703174E-03 VZ=-2.800268166408538E-03
Asteroid physical parameters (km, seconds, rotational period in hours):        
   GM= n.a.                RAD= 69.885             ROTPER= 4.701               
   H= 5.9                  G= .370                 B-V= .945                   
                           ALBEDO= .384            STYP= R                     
*******************************************************************************
            JDTDB,            Calendar Date (TDB),        delta-T,                      X,                      Y,                      Z,                     VX,                     VY,                     VZ,
******************************************************************************************************************************************************************************************************************
$$SOE
2461540.500000000, A.D. 2027-May-15 00:00:00.0000,      69.185257,  2.454380646941077E+00,  1.040269870243242E+00, -6.122967418075591E-02, -4.130042116089250E-03,  1.006051977960272E-02,  1.553057662711668E-03,
2461545.500000000, A.D. 2027-May-20 00:00:00.0000,      69.185162,  2.433253896613002E+00,  1.090365852642275E+00, -5.345295589760994E-02, -4.320364433946226E-03,  9.977231622405871E-03,  1.557528260752775E-03,
2461550.500000000, A.D. 2027-May-25 00:00:00.0000,      69.185057,  2.411180014287619E+00,  1.140035809561976E+00, -4.565540658511200E-02, -4.508879789234459E-03,  9.890117407251934E-03,  1.561389865917216E-03,
2461555.500000000, A.D. 2027-May-30 00:00:00.0000,      69.184947,  2.388168260415925E+00,  1.189260730118859E+00, -3.784007397943605E-02, -4.695498179402337E-03,  9.799225317696539E-03,  1.564641440717711E-03,
2461560.500000000, A.D. 2027-Jun-04 00:00:00.0000,      69.184831,  2.364228341596473E+00,  1.238021850609852E+00, -3.001000993640106E-02, -4.880131162807783E-03,  9.704606031644540E-03,  1.567282374631176E-03,
2461565.500000000, A.D. 2027-Jun-09 00:00:00.0000,      69.184709,  2.339370402550518E+00,  1.286300666820442E+00, -2.216826829952662E-02, -5.062691946406590E-03,  9.606312655318739E-03,  1.569312482830016E-03,
2461570.500000000, A.D. 2027-Jun-14 00:00:00.0000,      69.184581,  2.313605017665506E+00,  1.334078945994166E+00, -1.431790277620054E-02, -5.243095470668322E-03,  9.504400653902137E-03,  1.570732004207017E-03,
2461575.500000000, A.D. 2027-Jun-19 00:00:00.0000,      69.184448,  2.286943182121756E+00,  1.381338738447863E+00, -6.461964825455133E-03, -5.421258491303590E-03,  9.398927779260416E-03,  1.571541598711698E-03,
2461580.500000000, A.D. 2027-Jun-24 00:00:00.0000,      69.184311,  2.259396302619507E+00,  1.428062388818853E+00,  1.396498439273093E-03, -5.597099657308822E-03,  9.289953995021699E-03,  1.571742344025048E-03,
2461585.500000000, A.D. 2027-Jun-29 00:00:00.0000,      69.184173,  2.230976187725858E+00,  1.474232546931167E+00,  9.254446329161770E-03, -5.770539584911622E-03,  9.177541399123464E-03,  1.571335731600614E-03,
2461590.500000000, A.D. 2027-Jul-04 00:00:00.0000,      69.184036,  2.201695037862755E+00,  1.519832178268212E+00,  1.710884663769346E-02, -5.941500927182018E-03,  9.061754143838561E-03,  1.570323662095193E-03,
2461595.500000000, A.D. 2027-Jul-09 00:00:00.0000,      69.183898,  2.171565434957893E+00,  1.564844574039293E+00,  2.495667767401170E-02, -6.109908439254218E-03,  8.942658353306989E-03,  1.568708440207793E-03,
2461600.500000000, A.D. 2027-Jul-14 00:00:00.0000,      69.183760,  2.140600331780436E+00,  1.609253360827801E+00,  3.279493026902833E-02, -6.275689039191281E-03,  8.820322038695778E-03,  1.566492768943794E-03,
2461605.500000000, A.D. 2027-Jul-19 00:00:00.0000,      69.183622,  2.108813040983263E+00,  1.653042509809715E+00,  4.062060975144937E-02, -6.438771864493598E-03,  8.694815011206744E-03,  1.563679743320727E-03,
2461610.500000000, A.D. 2027-Jul-24 00:00:00.0000,      69.183487,  2.076217223873750E+00,  1.696196345532185E+00,  4.843073789095160E-02, -6.599088324167662E-03,  8.566208793119144E-03,  1.560272843521071E-03,
2461615.500000000, A.D. 2027-Jul-29 00:00:00.0000,      69.183357,  2.042826878935263E+00,  1.738699554242325E+00,  5.622235480569823E-02, -6.756572146419798E-03,  8.434576526785673E-03,  1.556275927471046E-03,
2461620.500000000, A.D. 2027-Aug-03 00:00:00.0000,      69.183233,  2.008656330119859E+00,  1.780537191755530E+00,  6.399252083129986E-02, -6.911159422634977E-03,  8.299992881499397E-03,  1.551693222849126E-03,
2461625.500000000, A.D. 2027-Aug-08 00:00:00.0000,      69.183114,  1.973720214929176E+00,  1.821694690854691E+00,  7.173831834865455E-02, -7.062788648047242E-03,  8.162533959259512E-03,  1.546529318660474E-03,
2461630.500000000, A.D. 2027-Aug-13 00:00:00.0000,      69.183000,  1.938033472302732E+00,  1.862157868218455E+00,  7.945685356884161E-02, -7.211400757823551E-03,  8.022277200695068E-03,  1.540789156482124E-03,
2461635.500000000, A.D. 2027-Aug-18 00:00:00.0000,      69.182892,  1.901611330339406E+00,  1.901912930878611E+00,  8.714525827322377E-02, -7.356939157764578E-03,  7.879301290602965E-03,  1.534478021278313E-03,
2461640.500000000, A.D. 2027-Aug-23 00:00:00.0000,      69.182792,  1.864469293876996E+00,  1.940946482202591E+00,  9.480069150641979E-02, -7.499349750549978E-03,  7.733686062462490E-03,  1.527601531742083E-03,
2461645.500000000, A.D. 2027-Aug-28 00:00:00.0000,      69.182702,  1.826623131950342E+00,  1.979245527396891E+00,  1.024203412199700E-01, -7.638580958073073E-03,  7.585512402401298E-03,  1.520165630245677E-03,
2461650.500000000, A.D. 2027-Sep-02 00:00:00.0000,      69.182622,  1.788088865147862E+00,  2.016797478530167E+00,  1.100014258649212E-01, -7.774583739705618E-03,  7.434862153172394E-03,  1.512176572465073E-03,
2461655.500000000, A.D. 2027-Sep-07 00:00:00.0000,      69.182552,  1.748882752887260E+00,  2.053590159076896E+00,  1.175411959317913E-01, -7.907311606349405E-03,  7.281818018432230E-03,  1.503640916710988E-03,
2461660.500000000, A.D. 2027-Sep-12 00:00:00.0000,      69.182491,  1.709021280631544E+00,  2.089611807983570E+00,  1.250369354365036E-01, -8.036720630271488E-03,  7.126463467507777E-03,  1.494565512991772E-03,
2461665.500000000, A.D. 2027-Sep-17 00:00:00.0000,      69.182440,  1.668521147066285E+00,  2.124851083260316E+00,  1.324859633510283E-01, -8.162769450787415E-03,  6.968882640831143E-03,  1.484957491835974E-03,
2461670.500000000, A.D. 2027-Sep-22 00:00:00.0000,      69.182401,  1.627399251258640E+00,  2.159297065101748E+00,  1.398856349775938E-01, -8.285419275880930E-03,  6.809160256226462E-03,  1.474824252904511E-03,
2461675.500000000, A.D. 2027-Sep-27 00:00:00.0000,      69.182375,  1.585672679818258E+00,  2.192939258541764E+00,  1.472333432654984E-01, -8.404633879857107E-03,  6.647381516234597E-03,  1.464173453423530E-03,
